THURAYA-3               
1 32404U 08001A   17345.55952066 -.00000312  00000-0  00000-0 0  9997
2 32404   3.9835 355.8010 0004742 262.5065 122.0886  1.00270924 36346
